NORAD_CAT_ID,OBJECT_NAME,OBJECT_TYPE,EPOCH,MEAN_MOTION,ECCENTRICITY,INCLINATION,RA_OF_ASC_NODE,ARG_OF_PERICENTER,MEAN_ANOMALY,BSTAR,MEAN_MOTION_DOT,MEAN_MOTION_DDOT,TLE_LINE0,TLE_LINE1,TLE_LINE2,SEMIMAJOR_AXIS,PERIOD,APOGEE,PERIGEE,DECAYED
53140.0,STARLINK-4170,PAYLOAD,2024-01-28 03:58:20,15.08839147,0.0001741,53.2184,37.6309,101.8045,258.3143,8.2158e-05,1.02e-05,0.0,0 STARLINK-4170,1 53140U 22083J   24028.16551410  .00001020  00000-0  82158-4 0  9998,2 53140  53.2184  37.6309 0001741 101.8045 258.3143 15.08839147 85373,6917.883,95.438,540.952,538.544,0.0
53140.0,STARLINK-4170,PAYLOAD,2024-01-28 10:19:52,15.08841794,0.000177,53.2185,36.435,94.3968,265.7227,0.00010227,1.34e-05,0.0,0 STARLINK-4170,1 53140U 22083J   24028.43047218  .00001340  00000-0  10227-3 0  9996,2 53140  53.2185  36.4350 0001770  94.3968 265.7227 15.08841794 84789,6917.875,95.437,540.964,538.515,0.0
53140.0,STARLINK-4170,PAYLOAD,2024-01-29 05:24:30,15.08841802,0.000178,53.2182,32.8644,105.3146,254.8043,5.5666e-05,5.98e-06,0.0,0 STARLINK-4170,1 53140U 22083J   24029.22535427  .00000598  00000-0  55666-4 0  9999,2 53140  53.2182  32.8644 0001780 105.3146 254.8043 15.08841802 85533,6917.875,95.437,540.971,538.508,0.0
53140.0,STARLINK-4170,PAYLOAD,2024-01-30 03:39:54,15.08838455,0.000178,53.2189,28.7072,109.896,250.2224,2.4608e-05,1.04e-06,0.0,0 STARLINK-4170,1 53140U 22083J   24030.15271880  .00000104  00000-0  24608-4 0  9998,2 53140  53.2189  28.7072 0001780 109.8960 250.2224 15.08838455 85678,6917.885,95.438,540.981,538.519,0.0
53140.0,STARLINK-4170,PAYLOAD,2024-01-30 05:15:18,15.08840092,0.0001659,53.2185,28.4099,102.3124,257.8053,7.9125e-06,-1.62e-06,0.0,0 STARLINK-4170,1 53140U 22083J   24030.21895883 -.00000162  00000-0  79125-5 0  9990,2 53140  53.2185  28.4099 0001659 102.3124 257.8053 15.08840092 85050,6917.88,95.438,540.893,538.597,0.0
53140.0,STARLINK-4170,PAYLOAD,2024-01-31 09:52:13,15.08857,0.0002148,53.2189,23.0535,107.63,252.4926,-8.5288e-05,-1.646e-05,0.0,0 STARLINK-4170,1 53140U 22083J   24031.41127017 -.00001646  00000-0 -85288-4 0  9995,2 53140  53.2189  23.0535 0002148 107.6300 252.4926 15.08857000 85864,6917.828,95.436,541.179,538.207,0.0
53140.0,STARLINK-4170,PAYLOAD,2024-02-01 03:21:29,15.08836721,0.0001839,53.2193,19.7798,100.9175,259.2025,2.383e-05,9.1e-07,0.0,0 STARLINK-4170,1 53140U 22083J   24032.13992250  .00000091  00000-0  23830-4 0  9990,2 53140  53.2193  19.7798 0001839 100.9175 259.2025 15.08836721 85978,6917.89,95.438,541.028,538.483,0.0
53140.0,STARLINK-4170,PAYLOAD,2024-02-01 04:56:52,15.08835214,0.0001801,53.2197,19.4828,103.6177,256.5016,1.2273e-05,-9.3e-07,0.0,0 STARLINK-4170,1 53140U 22083J   24032.20616357 -.00000093  00000-0  12273-4 0  9991,2 53140  53.2197  19.4828 0001801 103.6177 256.5016 15.08835214 85352,6917.895,95.438,541.006,538.514,0.0
53140.0,STARLINK-4170,PAYLOAD,2024-02-01 22:26:06,15.08852294,0.000193,53.2192,16.2114,124.7427,235.3747,-0.00016568,-2.925e-05,0.0,0 STARLINK-4170,1 53140U 22083J   24032.93480137 -.00002925  00000-0 -16568-3 0  9993,2 53140  53.2192  16.2114 0001930 124.7427 235.3747 15.08852294 85460,6917.843,95.437,541.043,538.373,0.0
53140.0,STARLINK-4170,PAYLOAD,2024-02-02 03:12:15,15.08850526,0.000294,53.2195,15.3233,149.8635,210.2527,-7.465e-06,-4.07e-06,0.0,0 STARLINK-4170,1 53140U 22083J   24033.13351147 -.00000407  00000-0 -74650-5 0  9995,2 53140  53.2195  15.3233 0002940 149.8635 210.2527 15.08850526 86124,6917.848,95.437,541.747,537.679,0.0
53140.0,STARLINK-4170,PAYLOAD,2024-02-02 07:58:24,15.08856024,0.000146,53.2183,14.4313,107.6502,252.4649,6.3581e-05,7.24e-06,0.0,0 STARLINK-4170,1 53140U 22083J   24033.33222866  .00000724  00000-0  63581-4 0  9992,2 53140  53.2183  14.4313 0001460 107.6502 252.4649 15.08856024 85526,6917.831,95.437,540.706,538.686,0.0
53140.0,STARLINK-4170,PAYLOAD,2024-02-02 22:16:54,15.08834752,0.0001896,53.2195,11.7581,89.2067,270.9143,8.2024e-05,1.017e-05,0.0,0 STARLINK-4170,1 53140U 22083J   24033.92840419  .00001017  00000-0  82024-4 0  9996,2 53140  53.2195  11.7581 0001896  89.2067 270.9143 15.08834752 85618,6917.896,95.438,541.073,538.45,0.0
53140.0,STARLINK-4170,PAYLOAD,2024-02-03 03:03:03,15.08837536,0.0001964,53.2195,10.8652,114.7659,245.3538,3.2952e-05,2.36e-06,0.0,0 STARLINK-4170,1 53140U 22083J   24034.12712246  .00000236  00000-0  32952-4 0  9992,2 53140  53.2195  10.8652 0001964 114.7659 245.3538 15.08837536 86274,6917.888,95.438,541.112,538.394,0.0
53140.0,STARLINK-4170,PAYLOAD,2024-02-03 04:38:26,15.08837983,0.000192,53.2197,10.5678,115.3884,244.7307,3.8288e-05,3.21e-06,0.0,0 STARLINK-4170,1 53140U 22083J   24034.19336263  .00000321  00000-0  38288-4 0  9993,2 53140  53.2197  10.5678 0001920 115.3884 244.7307 15.08837983 85654,6917.887,95.438,541.08,538.423,0.0
53140.0,STARLINK-4170,PAYLOAD,2024-02-04 04:29:12,15.08850591,0.0001558,53.2193,6.1061,101.9603,258.1564,3.4526e-05,2.62e-06,0.0,0 STARLINK-4170,1 53140U 22083J   24035.18695463  .00000262  00000-0  34526-4 0  9998,2 53140  53.2193   6.1061 0001558 101.9603 258.1564 15.08850591 86435,6917.848,95.437,540.791,538.635,0.0
53140.0,STARLINK-4170,PAYLOAD,2024-02-04 07:39:58,15.08855511,0.0001502,53.2191,5.5105,98.8154,261.3008,7.0473e-05,8.34e-06,0.0,0 STARLINK-4170,1 53140U 22083J   24035.31943079  .00000834  00000-0  70473-4 0  9998,2 53140  53.2191   5.5105 0001502  98.8154 261.3008 15.08855511 85827,6917.833,95.437,540.737,538.659,0.0
53140.0,STARLINK-4170,PAYLOAD,2024-02-04 21:58:27,15.08841198,0.0001556,53.2186,2.8309,103.4416,256.6749,4.4556e-05,4.21e-06,0.0,0 STARLINK-4170,1 53140U 22083J   24035.91559990  .00000421  00000-0  44556-4 0  9994,2 53140  53.2186   2.8309 0001556 103.4416 256.6749 15.08841198 85915,6917.877,95.437,540.818,538.665,0.0
53140.0,STARLINK-4170,PAYLOAD,2024-02-05 04:20:00,15.08845069,0.0001585,53.2189,1.6453,103.5033,256.6136,0.00010884,1.445e-05,0.0,0 STARLINK-4170,1 53140U 22083J   24036.18055642  .00001445  00000-0  10884-3 0  9992,2 53140  53.2189   1.6453 0001585 103.5033 256.6136 15.08845069 86588,6917.865,95.437,540.826,538.633,0.0
53140.0,STARLINK-4170,PAYLOAD,2024-02-06 04:10:47,15.08842985,0.0001603,53.2191,357.1877,104.3074,255.8096,-2.1021e-05,-6.23e-06,0.0,0 STARLINK-4170,1 53140U 22083J   24037.17416157 -.00000623  00000-0 -21021-4 0  9999,2 53140  53.2191 357.1877 0001603 104.3074 255.8096 15.08842985 86732,6917.871,95.437,540.845,538.627,0.0
53140.0,STARLINK-4170,PAYLOAD,2024-02-06 21:40:02,15.08838464,0.0001844,53.219,353.915,117.6493,242.4687,3.9711e-05,3.44e-06,0.0,0 STARLINK-4170,1 53140U 22083J   24037.90280377  .00000344  00000-0  39711-4 0  9996,2 53140  53.2190 353.9150 0001844 117.6493 242.4687 15.08838464 86216,6917.885,95.438,541.026,538.474,0.0
53140.0,STARLINK-4170,PAYLOAD,2024-02-07 02:26:10,15.08849369,0.0001814,53.2183,353.0203,124.8161,235.3002,0.00010655,1.408e-05,0.0,0 STARLINK-4170,1 53140U 22083J   24038.10151408  .00001408  00000-0  10655-3 0  9998,2 53140  53.2183 353.0203 0001814 124.8161 235.3002 15.08849369 86877,6917.852,95.437,540.972,538.462,0.0
53140.0,STARLINK-4170,PAYLOAD,2024-02-07 13:33:53,15.08845451,0.0001433,53.2184,350.9415,99.3864,260.729,3.7795e-05,3.14e-06,0.0,0 STARLINK-4170,1 53140U 22083J   24038.56519874  .00000314  00000-0  37795-4 0  9993,2 53140  53.2184 350.9415 0001433  99.3864 260.7290 15.08845451 86310,6917.864,95.437,540.72,538.737,0.0
53140.0,STARLINK-4170,PAYLOAD,2024-02-07 18:20:04,15.08827939,0.0001458,53.2182,350.0497,88.8988,271.2171,-6.0806e-05,-1.255e-05,0.0,0 STARLINK-4170,1 53140U 22083J   24038.76393624 -.00001255  00000-0 -60806-4 0  9994,2 53140  53.2182 350.0497 0001458  88.8988 271.2171 15.08827939 86974,6917.917,95.438,540.791,538.774,0.0
53140.0,STARLINK-4170,PAYLOAD,2024-02-08 03:52:22,15.08836052,0.0001441,53.2184,348.2657,71.0383,289.0765,1.3912e-05,-6.7e-07,0.0,0 STARLINK-4170,1 53140U 22083J   24039.16137193 -.00000067  00000-0  13912-4 0  9991,2 53140  53.2184 348.2657 0001441  71.0383 289.0765 15.08836052 87038,6917.892,95.438,540.754,538.761,0.0
53140.0,STARLINK-4170,PAYLOAD,2024-02-08 05:27:45,15.08839749,0.0001456,53.2189,347.9663,90.3301,269.7858,3.3975e-05,2.53e-06,0.0,0 STARLINK-4170,1 53140U 22083J   24039.22760965  .00000253  00000-0  33975-4 0  9994,2 53140  53.2189 347.9663 0001456  90.3301 269.7858 15.08839749 86411,6917.881,95.438,540.753,538.739,0.0
53140.0,STARLINK-4170,PAYLOAD,2024-02-09 03:43:08,15.08855084,0.0001362,53.2173,343.8048,110.2882,249.8257,0.00025342,3.749e-05,0.0,0 STARLINK-4170,1 53140U 22083J   24040.15495998  .00003749  00000-0  25342-3 0  9990,2 53140  53.2173 343.8048 0001362 110.2882 249.8257 15.08855084 87185,6917.834,95.437,540.641,538.757,0.0
53140.0,STARLINK-4170,PAYLOAD,2024-02-09 05:18:31,15.08855986,0.0001194,53.2176,343.5072,86.8083,273.3046,0.00027266,4.056e-05,0.0,0 STARLINK-4170,1 53140U 22083J   24040.22119993  .00004056  00000-0  27266-3 0  9995,2 53140  53.2176 343.5072 0001194  86.8083 273.3046 15.08855986 86566,6917.832,95.437,540.523,538.871,0.0
53140.0,STARLINK-4170,PAYLOAD,2024-02-09 19:37:00,15.08837678,0.0001741,53.2173,340.8346,79.4596,280.6592,0.00016094,2.274e-05,0.0,0 STARLINK-4170,1 53140U 22083J   24040.81737103  .00002274  00000-0  16094-3 0  9996,2 53140  53.2173 340.8346 0001741  79.4596 280.6592 15.08837678 87287,6917.887,95.438,540.957,538.548,0.0
53140.0,STARLINK-4170,PAYLOAD,2024-02-10 05:09:19,15.08847728,0.0001615,53.218,339.0461,79.1586,280.9588,0.00025859,3.831e-05,0.0,0 STARLINK-4170,1 53140U 22083J   24041.21480734  .00003831  00000-0  25859-3 0  9995,2 53140  53.2180 339.0461 0001615  79.1586 280.9588 15.08847728 86711,6917.857,95.437,540.839,538.605,0.0
53140.0,STARLINK-4170,PAYLOAD,2024-02-11 01:49:20,15.08846329,0.0001732,53.2183,335.1792,75.7946,284.3238,1.0625e-05,-1.19e-06,0.0,0 STARLINK-4170,1 53140U 22083J   24042.07592840 -.00000119  00000-0  10625-4 0  9995,2 53140  53.2183 335.1792 0001732  75.7946 284.3238 15.08846329 87470,6917.861,95.437,540.924,538.528,0.0
